OSCAR 7 (AO-7)          
1 07530U 74089B   26170.47889307 -.00000047  00000+0 -14457-5 0  9993
2 07530 101.9899 183.7495 0012599 125.8414  33.8516 12.53698153360808
PHASE 3B (AO-10)        
1 14129U 83058B   26170.31181398  .00000155  00000+0  00000+0 0  9990
2 14129  25.9140 219.2125 6010102 116.2527 316.1180  2.05869727295536
UOSAT 2 (UO-11)         
1 14781U 84021B   26170.36922180  .00000988  00000+0  10609-3 0  9996
2 14781  97.8059 135.9194 0007849 165.3072 194.8376 14.90787799257457
LUSAT (LO-19)           
1 20442U 90005G   26170.55409945  .00000068  00000+0  40989-4 0  9990
2 20442  98.8849 192.4250 0011244 193.9375 166.1500 14.34123783902738
EYESAT A (AO-27)        
1 22825U 93061C   26170.72690550  .00000069  00000+0  43200-4 0  9995
2 22825  98.6880 238.1396 0009545  93.2451 266.9824 14.30942876707363
ITAMSAT (IO-26)         
1 22826U 93061D   26170.70556031  .00000068  00000+0  42305-4 0  9993
2 22826  98.6829 238.0359 0010016  78.3690 281.8617 14.31369842707676
RADIO ROSTO (RS15)      
1 23439U 94085A   26170.77665375 -.00000032  00000+0  29729-3 0  9996
2 23439  64.8186 299.0280 0156019   3.3963 356.7984 11.27583478296197
JAS-2 (FO-29)           
1 24278U 96046B   26170.30734483 -.00000013  00000+0  19676-4 0  9993
2 24278  98.5238  18.8890 0350921  90.9460 273.1898 13.53274520473455
TECHSAT 1B (GO-32)      
1 25397U 98043D   26170.59313746  .00000028  00000+0  32334-4 0  9992
2 25397  99.0068 163.4125 0001179 158.0468 202.0760 14.24428772451673
ISS (ZARYA)             
1 25544U 98067A   26170.83410214  .00008787  00000+0  16559-3 0  9997
2 25544  51.6327 286.9925 0004571 206.3214 153.7542 15.49322400572160
PCSAT (NO-44)           
1 26931U 01043C   26170.46421187  .00000069  00000+0  56710-4 0  9995
2 26931  67.0503 238.3826 0006071 264.6525  95.3885 14.31956812290773
SAUDISAT 1C (SO-50)     
1 27607U 02058C   26170.85258546  .00000740  00000+0  10489-3 0  9991
2 27607  64.5513 120.7383 0075162 261.9782  97.2791 14.83051819264858
CUTE-1 (CO-55)          
1 27844U 03031E   26170.56610412  .00000202  00000+0  10624-3 0  9992
2 27844  98.6736 179.0951 0009689 171.1603 188.9749 14.24336935192018
CUBESAT XI-IV (CO-57)   
1 27848U 03031J   26170.48547204  .00000165  00000+0  91471-4 0  9993
2 27848  98.6765 178.7263 0009188 190.0962 170.0034 14.23621824191705
MOZHAETS 4 (RS22)       
1 27939U 03042A   26170.86919330  .00000561  00000+0  94697-4 0  9994
2 27939  98.3468 355.3034 0009932 260.1421 207.0533 14.73470566215946
CUBESAT XI-V            
1 28895U 05043F   26170.37304894  .00001074  00000+0  17676-3 0  9999
2 28895  98.2987 326.0406 0013797 193.6141 166.4695 14.72636457102072
CUTE-1.7+APD II (CO-65) 
1 32785U 08021C   26170.90038654  .00004758  00000+0  30099-3 0  9994
2 32785  97.8277 152.3753 0009494  30.2474 329.9300 15.09473052985609
SEEDS II (CO-66)        
1 32791U 08021J   26170.55102446  .00014814  00000+0  46963-3 0  9994
2 32791  97.7522 168.5617 0000744 349.7207  10.4018 15.32817335987654
YUBILEINY (RS30)        
1 32953U 08025A   26170.83471623 -.00000059  00000+0 -49497-3 0  9998
2 32953  82.5040 353.7925 0018759 307.8284  52.1097 12.43179151820029
KKS-1 (KISEKI)          
1 33499U 09002H   26170.82030838  .00001006  00000+0  13026-3 0  9998
2 33499  98.1188  93.3043 0006436 285.6017  74.4486 14.83129685936586
SWISSCUBE               
1 35932U 09051B   26170.49485083  .00000714  00000+0  15057-3 0  9996
2 35932  98.4033  78.4234 0006120 194.9900 165.1121 14.62485188889492
BEESAT-1                
1 35933U 09051C   26170.71084494  .00000603  00000+0  13077-3 0  9990
2 35933  98.3961  78.2733 0004371 207.4388 152.6582 14.61723870889551
ITUPSAT1                
1 35935U 09051E   26170.70394442  .00000548  00000+0  12315-3 0  9990
2 35935  98.4046  77.4556 0006376 224.8991 135.1693 14.60443828889103
XIWANG-1 (HOPE-1)       
1 36122U 09072B   26170.82785084  .00000299  00000+0  90009-3 0  9990
2 36122 100.4034 124.6184 0006901 224.9582 135.0972 13.16440968793358
O/OREOS (USA 219)       
1 37224U 10062C   26170.74099155  .00001640  00000+0  16046-3 0  9993
2 37224  71.9701  74.5547 0012641  57.6835 302.5558 14.93753061117023
JUGNU                   
1 37839U 11058B   26170.40974200  .00000394  00000+0  66043-4 0  9995
2 37839  19.9617 294.9273 0018623 100.5982 300.1635 14.13777315759341
SRMSAT                  
1 37841U 11058D   26170.35988047  .00000354  00000+0  48474-4 0  9990
2 37841  19.9728  46.3158 0011744 227.6220 288.1945 14.11575972758128
STRAND-1                
1 39090U 13009E   26170.42314841  .00000193  00000+0  79379-4 0  9998
2 39090  98.3923 350.6024 0007842 217.8573 142.2063 14.37164306697387
ZACUBE-1 (TSHEPISOSAT)  
1 39417U 13066B   26170.87353023  .00002333  00000+0  18363-3 0  9991
2 39417  97.8072 133.2244 0041142 238.4209 121.2995 15.01200695681135
GOMX-1                  
1 39430U 13066Q   26170.84159464  .00001463  00000+0  22432-3 0  9991
2 39430  97.6476  11.1364 0130104  69.1471 292.3612 14.69468315670301
